{
    "links": {
        "self": "http://www.neowsapp.com/rest/v1/neo/54087761?api_key=iIulBulltgU6a56xZRHN4H3l9WmuAYTsLGpBGhQ2"
    },
    "id": "54087761",
    "neo_reference_id": "54087761",
    "name": "(2020 VU3)",
    "designation": "2020 VU3",
    "nasa_jpl_url": "http://ssd.jpl.nasa.gov/sbdb.cgi?sstr=54087761",
    "absolute_magnitude_h": 27.781,
    "estimated_diameter": {
        "kilometers": {
            "estimated_diameter_min": 0.0073850761,
            "estimated_diameter_max": 0.0165135322
        },
        "meters": {
            "estimated_diameter_min": 7.3850761292,
            "estimated_diameter_max": 16.513532244
        },
        "miles": {
            "estimated_diameter_min": 0.0045888721,
            "estimated_diameter_max": 0.01026103
        },
        "feet": {
            "estimated_diameter_min": 24.2292531679,
            "estimated_diameter_max": 54.1782571274
        }
    },
    "is_potentially_hazardous_asteroid": false,
    "close_approach_data": [
        {
            "close_approach_date": "2020-06-20",
            "close_approach_date_full": "2020-Jun-20 11:48",
            "epoch_date_close_approach": 1592653680000,
            "relative_velocity": {
                "kilometers_per_second": "6.2129977758",
                "kilometers_per_hour": "22366.791993034",
                "miles_per_hour": "13897.8547247827"
            },
            "miss_distance": {
                "astronomical": "0.3695459076",
                "lunar": "143.7533580564",
                "kilometers": "55283280.644176812",
                "miles": "34351437.6949595256"
            },
            "orbiting_body": "Earth"
        },
        {
            "close_approach_date": "2020-11-08",
            "close_approach_date_full": "2020-Nov-08 22:00",
            "epoch_date_close_approach": 1604872800000,
            "relative_velocity": {
                "kilometers_per_second": "9.1260887037",
                "kilometers_per_hour": "32853.9193333446",
                "miles_per_hour": "20414.1478213218"
            },
            "miss_distance": {
                "astronomical": "0.0111894292",
                "lunar": "4.3526879588",
                "kilometers": "1673914.774835804",
                "miles": "1040122.4099659352"
            },
            "orbiting_body": "Earth"
        }
    ],
    "orbital_data": {
        "orbit_id": "1",
        "orbit_determination_date": "2020-11-12 18:12:11",
        "first_observation_date": "2020-11-11",
        "last_observation_date": "2020-11-12",
        "data_arc_in_days": 1,
        "observations_used": 13,
        "orbit_uncertainty": "8",
        "minimum_orbit_intersection": ".0104745",
        "jupiter_tisserand_invariant": "4.780",
        "epoch_osculation": "2459165.5",
        "eccentricity": ".321045437579678",
        "semi_major_axis": "1.359482839119854",
        "inclination": "10.3388366629027",
        "ascending_node_longitude": "49.59457743113165",
        "orbital_period": "578.9739470806733",
        "perihelion_distance": ".9230270761525576",
        "perihelion_argument": "311.3508883423182",
        "aphelion_distance": "1.795938602087151",
        "perihelion_time": "2459124.534619054237",
        "mean_anomaly": "25.47184932039746",
        "mean_motion": ".6217896363302824",
        "equinox": "J2000",
        "orbit_class": {
            "orbit_class_type": "APO",
            "orbit_class_description": "Near-Earth asteroid orbits which cross the Earth’s orbit similar to that of 1862 Apollo",
            "orbit_class_range": "a (semi-major axis) > 1.0 AU; q (perihelion) < 1.017 AU"
        }
    },
    "is_sentry_object": false
}